OBJECTID,Borough,Type,Provider,Name,Location,Latitude,Longitude,X,Y,Location_T,Remarks,City,SSID,SourceID,Activated,BoroCode,Borough Name,Neighborhood Tabulation Area Code (NTACODE),Neighborhood Tabulation Area (NTA),Council Distrcit,Postcode,BoroCD,Census Tract,BCTCB2010,BIN,BBL,DOITT_ID,"Location (Lat, Long)"
10604,4,Limited Free,SPECTRUM,Baisley Pond Park,Park Perimeter,40.6748599999,-73.7841200005,"1,044,131.89696","185,219.892077",Outdoor TWC Aerial,3 free 10 min sessions,Queens,GuestWiFi,0,09/09/9999,4,Queens,QN02,Springfield Gardens North,28,11434,412,294,294,0,0,1408,"(40.6748599999, -73.7841200005)"
10555,4,Limited Free,SPECTRUM,Kissena Park,Park Perimeter,40.7475599996,-73.8181499997,"1,034,637.51076","211,685.217755",Outdoor TWC Aerial,3 free 10 min sessions,Queens,GuestWiFi,0,09/09/9999,4,Queens,QN22,Flushing,20,11355,407,845,845,0,0,1359,"(40.7475599996, -73.8181499997)"
12370,3,Free,Transit Wireless,Grand St (L),Grand St (L),40.7119259997,-73.9406699994,"1,000,698.12752","198,655.90884",Subway Station,SN 123,Brooklyn,TransitWirelessWiFi,,09/09/9999,3,Brooklyn,BK90,East Williamsburg,34,11206,301,495,495,0,0,1699,"(40.7119259997, -73.9406699994)"
9893,3,Free,Downtown Brooklyn,,125 Court St.,40.6899850001,-73.9919950004,"986,469.966349","190,656.680416",Outdoor,,Brooklyn,Downtown Brooklyn WiFi,,09/09/9999,3,Brooklyn,BK09,Brooklyn Heights-Cobble Hill,33,11201,302,9,9,3388736,3002777501,298,"(40.6899850001, -73.9919950004)"
10169,1,Free,Transit Wireless,Lexington Av-63 St (F),Lexington Av-63 St (F),40.7646300002,-73.9661150001,"993,636.552081","217,853.888161",Subway Station,SN 223,New York,TransitWirelessWiFi,,09/09/9999,1,Manhattan,MN40,Upper East Side-Carnegie Hill,4,10065,108,120,120,0,0,599,"(40.7646300002, -73.9661150001)"
10880,4,Limited Free,SPECTRUM,Kissena Park,Park Perimeter,40.7424300003,-73.8115100003,"1,036,481.35944","209,820.088612",Outdoor TWC Aerial,3 free 10 min sessions,Queens,GuestWiFi,0,09/09/9999,4,Queens,QN62,Queensboro Hill,20,11355,407,1215,1215,0,0,1347,"(40.7424300003, -73.8115100003)"
10953,1,Free,Harlem,,Pole 94 - LenWS1N133,40.812944,-73.9416929996,"1,000,390.02217","235,459.893303",Outdoor,,New York,Harlem Wi-Fi,,09/09/9999,1,Manhattan,MN03,Central Harlem North-Polo Grounds,9,10037,110,212,212,0,0,787,"(40.812944, -73.9416929996)"
11018,3,Free,BPL,Clinton Hill - Brooklyn Public Library,380 WASHINGTON AVENUE,40.6873790941,-73.966030666,"993,670.827931","189,708.997928",Library,,Brooklyn,BPLUNWIRED,,09/09/9999,3,Brooklyn,BK69,Clinton Hill,35,11238,302,197,197,3055495,3019450036,53,"(40.6873790941, -73.966030666)"
12375,4,Free,Transit Wireless,Halsey St (L),Halsey St (L),40.6956020001,-73.9040840004,"1,010,847.41694","192,717.578854",Subway Station,SN 129,Brooklyn,TransitWirelessWiFi,,09/09/9999,4,Queens,QN20,Ridgewood,34,11385,405,555,555,0,0,1704,"(40.6956020001, -73.9040840004)"
12607,3,Free,Transit Wireless,"Broadway Junction (A,C,J,L,Z)","Broadway Junction (A,C,J,L,Z)",40.6783340002,-73.9053160001,"1,010,512.58493","186,425.975295",Subway Station,SN 184,Brooklyn,TransitWirelessWiFi,,09/09/9999,3,Brooklyn,BK79,Ocean Hill,37,11233,316,367,367,0,3015460001,1718,"(40.6783340002, -73.9053160001)"
11726,2,Limited Free,ALTICEUSA,Crotona Park,CROTONA PARK C/O EAST 173RD ST AND FULTON AVE,40.8406639999,-73.8983720002,"1,012,370.03233","245,570.243161",Outdoor,3 free 10 min sessions,Bronx,GuestWiFi,,09/09/9999,2,Bronx,BX01,Claremont-Bathgate,16,10457,203,167,167,0,0,1285,"(40.8406639999, -73.8983720002)"
9823,1,Free,Fiberless,Governors Island,Liggett B Food Court,40.6903899996,-74.0199599995,"978,714.677069","190,804.762797",Outdoor,Free - up to 5 mbs,New York,Governors Island,Governors Island Trust,09/09/9999,1,Manhattan,MN99,Governors Island,1,10004,101,5,5,1086341,1000010010,4920,"(40.6903899996, -74.0199599995)"
10915,1,Free,Harlem,,pole 51n - 131NWC5th,40.81026,-73.9395100003,"1,000,994.97568","234,482.426426",Outdoor,,New York,Harlem Wi-Fi,,09/09/9999,1,Manhattan,MN03,Central Harlem North-Polo Grounds,9,10037,110,208,208,0,0,748,"(40.81026, -73.9395100003)"
12084,3,Free,LinkNYC - Citybridge,bk-02-126166,181 Court Street,40.6879008003,-73.9931469103,"986,150.575255","189,897.318418",Outdoor Kiosk,"Tablet Internet -phone , Free 1 GB Wi-FI Service",Brooklyn,LinkNYC Free Wi-Fi,LINK-000049,01/05/2018,3,Brooklyn,BK38,DUMBO-Vinegar Hill-Downtown Brooklyn-Boerum Hill,33,11201,302,43,43,3002846,3002800020,3039,"(40.6879008003, -73.9931469103)"
12080,3,Free,LinkNYC - Citybridge,bk-02-126505,620 ATLANTIC AVENUE,40.6836250004,-73.9770060002,"990,627.361249","188,340.282818",Outdoor Kiosk,"Tablet Internet -phone , Free 1 GB Wi-FI Service",Brooklyn,LinkNYC Free Wi-Fi,LINK-000044,07/25/2017,3,Brooklyn,BK37,Park Slope-Gowanus,35,11217,302,129,129,3348849,3020017500,3035,"(40.6836250004, -73.9770060002)"
12500,5,Free,LinkNYC - Citybridge,si-02-125476,19 SEAVIEW AVENUE,40.5909830002,-74.1007320003,"956,273.280351","154,603.543533",Outdoor Kiosk,"Tablet Internet -phone , Free 1 GB Wi-FI Service",Staten Island,LinkNYC Free Wi-Fi,LINK-001752,02/28/2017,5,Staten Island,SI36,Old Town-Dongan Hills-South Beach,50,10304,502,96,96,5048677,5033050090,3585,"(40.5909830002, -74.1007320003)"
9932,3,Free,BPL,Saratoga - Brooklyn Public Library,8 THOMAS S BOYLAND STREET,40.6848100477,-73.915132416,"1,007,787.51197","188,782.594926",Library,,Brooklyn,BPLUNWIRED,,09/09/9999,3,Brooklyn,BK79,Ocean Hill,41,11233,316,373,373,3040218,3014980035,345,"(40.6848100477, -73.915132416)"
10191,4,Free,LinkNYC - Citybridge,qu-01-145954,43-40 NORTHERN BOULEVARD,40.7536406401,-73.9184016594,"1,006,857.44756","213,858.819051",Outdoor Kiosk,"Tablet Internet -phone , Free 1 GB Wi-FI Service",Queens,LinkNYC Free Wi-Fi,LINK-020932,11/07/2017,4,Queens,QN31,Hunters Point-Sunnyside-West Maspeth,26,11101,401,171,171,4441943,4001430500,4639,"(40.7536406401, -73.9184016594)"
10390,3,Limited Free,ALTICEUSA,MARIA HERNANDEZ,IN PARK BELOW PLAYGROUND AREA SOUTH SIDE,40.7025399998,-73.9238159997,"1,005,373.55518","195,239.922234",Outdoor,3 free 10 min sessions,Brooklyn,GuestWiFi,,09/09/9999,3,Brooklyn,BK77,Bushwick North,34,11237,304,429,429,0,3032030001,245,"(40.7025399998, -73.9238159997)"
11491,1,Free,LinkNYC - Citybridge,mn-03-123802,237 1 AVENUE,40.7312190398,-73.9828270001,"989,009.513763","205,679.853454",Outdoor Kiosk,"Tablet Internet -phone , Free 1 GB Wi-FI Service",New York,LinkNYC Free Wi-Fi,LINK-014015,10/06/2017,1,Manhattan,MN22,East Village,2,10003,103,40,40,1006522,1004550030,4386,"(40.7312190398, -73.9828270001)"
10721,1,Free,LinkNYC - Citybridge,mn-03-139455,242 EAST 10 STREET,40.728824,-73.9846799999,"988,496.105669","204,807.170488",Outdoor Kiosk,"Tablet Internet -phone , Free 1 GB Wi-FI Service",New York,LinkNYC Free Wi-Fi,LINK-008305,10/06/2017,1,Manhattan,MN22,East Village,2,10003,103,40,40,1006417,1004510030,3827,"(40.728824, -73.9846799999)"
12228,1,Free,LinkNYC - Citybridge,mn-06-123634,203 3 AVENUE,40.7356259996,-73.9853220002,"988,317.753007","207,285.321372",Outdoor Kiosk,"Tablet Internet -phone , Free 1 GB Wi-FI Service",New York,LinkNYC Free Wi-Fi,LINK-000243,01/19/2016,1,Manhattan,MN21,Gramercy,2,10003,106,48,48,1019551,1008980000,3111,"(40.7356259996, -73.9853220002)"
12237,1,Free,LinkNYC - Citybridge,mn-06-121488,323 3 AVENUE,40.739528,-73.9824889997,"989,102.585755","208,707.087557",Outdoor Kiosk,"Tablet Internet -phone , Free 1 GB Wi-FI Service",New York,LinkNYC Free Wi-Fi,LINK-000264,12/05/2016,1,Manhattan,MN20,Murray Hill-Kips Bay,2,10010,106,66,66,1082137,1009050000,3120,"(40.739528, -73.9824889997)"
10885,1,Free,LinkNYC - Citybridge,mn-05-134211,736 7 AVENUE,40.7602353199,-73.9840119597,"988,679.171576","216,251.350355",Outdoor Kiosk,"Tablet Internet -phone , Free 1 GB Wi-FI Service",New York,LinkNYC Free Wi-Fi,LINK-010160,06/12/2017,1,Manhattan,MN17,Midtown-Midtown South,4,10019,105,125,125,1024777,1010200040,3843,"(40.7602353199, -73.9840119597)"
11822,1,Free,LinkNYC - Citybridge,mn-08-135080,400 EAST 68 STREET,40.7651194601,-73.9576938298,"995,969.231143","218,033.22901",Outdoor Kiosk,"Tablet Internet -phone , Free 1 GB Wi-FI Service",New York,LinkNYC Free Wi-Fi,LINK-014618,06/15/2018,1,Manhattan,MN31,Lenox Hill-Roosevelt Island,5,10065,108,116,116,1045572,1014620000,4442,"(40.7651194601, -73.9576938298)"
12730,1,Free,LinkNYC - Citybridge,mn-03-123269,170 2 AVENUE,40.7302489998,-73.9863479994,"988,033.720439","205,326.265906",Outdoor Kiosk,"Tablet Internet -phone , Free 1 GB Wi-FI Service",New York,LinkNYC Free Wi-Fi,LINK-003229,09/13/2016,1,Manhattan,MN22,East Village,2,10003,103,40,40,1006435,1004520010,3657,"(40.7302489998, -73.9863479994)"
12942,1,Free,LinkNYC - Citybridge,mn-06-121538,300 EAST 45 STREET,40.7516323603,-73.9706571702,"992,379.902692","213,117.969811",Outdoor Kiosk,"Tablet Internet -phone , Free 1 GB Wi-FI Service",New York,LinkNYC Free Wi-Fi,LINK-007631,03/06/2018,1,Manhattan,MN19,Turtle Bay-East Midtown,4,10017,106,90,90,1038762,1013370050,3796,"(40.7516323603, -73.9706571702)"
11144,4,Free,LinkNYC - Citybridge,qu-04-145898,84-43 CORONA AVENUE,40.73933161,-73.8781299298,"1,018,022.28677","208,658.544347",Outdoor Kiosk,"Tablet Internet -phone , Free 1 GB Wi-FI Service",Queens,LinkNYC Free Wi-Fi,LINK-019897,09/07/2017,4,Queens,QN50,Elmhurst-Maspeth,25,11373,404,485,485,4038727,4015460040,4587,"(40.73933161, -73.8781299298)"
12632,3,Free,LinkNYC - Citybridge,bk-16-126638,2208 FULTON STREET,40.6780789998,-73.9083739999,"1,009,664.4823","186,332.16938",Outdoor Kiosk,"Tablet Internet -phone , Free 1 GB Wi-FI Service",Brooklyn,LinkNYC Free Wi-Fi,LINK-002348,01/17/2017,3,Brooklyn,BK79,Ocean Hill,37,11233,316,369,369,3042262,3015520040,3632,"(40.6780789998, -73.9083739999)"
10108,1,Free,Manhattan Down Alliance,23,"Downtown Manhattan Heliport, 6 East River Piers, New York, USA",40.7015990998,-74.0093001995,"981,671.294844","194,888.075497",Outdoor,,New York,#DwtwnAllianceFreeWiFi,,09/09/9999,1,Manhattan,MN25,Battery Park City-Lower Manhattan,1,10004,101,9,9,1075697,1000020023,534,"(40.7015990998, -74.0093001995)"
12369,3,Free,Transit Wireless,"7 Av (B,Q)","7 Av (B,Q)",40.67705,-73.9723670001,"991,914.738596","185,945.192464",Subway Station,SN 41,Brooklyn,TransitWirelessWiFi,,09/09/9999,3,Brooklyn,BK64,Prospect Heights,39,11217,306,161,161,0,0,1698,"(40.67705, -73.9723670001)"
11053,4,Free,LinkNYC - Citybridge,qu-01-125116,42-02 30 AVENUE,40.7629999999,-73.9132590006,"1,008,278.88369","217,270.106848",Outdoor Kiosk,"Tablet Internet -phone , Free 1 GB Wi-FI Service",Queens,LinkNYC Free Wi-Fi,LINK-013082,07/10/2017,4,Queens,QN70,Astoria,22,11103,401,149,149,4011927,4006960040,4250,"(40.7629999999, -73.9132590006)"
12286,3,Free,LinkNYC - Citybridge,bk-17-126297,3301 CHURCH AVE,40.6510267597,-73.9465128704,"999,091.849241","176,467.516209",Outdoor Kiosk,"Tablet Internet -phone , Free 1 GB Wi-FI Service",Brooklyn,LinkNYC Free Wi-Fi,LINK-001087,10/30/2017,3,Brooklyn,BK95,Erasmus,40,11203,317,818,818,3108643,3048700040,3469,"(40.6510267597, -73.9465128704)"
11459,1,Free,LinkNYC - Citybridge,mn-02-122267,504 6 AVENUE,40.7365398796,-73.9971555402,"985,038.281876","207,617.948659",Outdoor Kiosk,"Tablet Internet -phone , Free 1 GB Wi-FI Service",New York,LinkNYC Free Wi-Fi,LINK-010900,08/01/2018,1,Manhattan,MN23,West Village,3,10011,102,63,63,1080145,1005760010,3955,"(40.7365398796, -73.9971555402)"
12839,1,Free,LinkNYC - Citybridge,mn-08-121002,200 EAST 74 STREET,40.7709460001,-73.9594960004,"995,469.030372","220,155.794646",Outdoor Kiosk,"Tablet Internet -phone , Free 1 GB Wi-FI Service",New York,LinkNYC Free Wi-Fi,LINK-000845,11/07/2016,1,Manhattan,MN31,Lenox Hill-Roosevelt Island,4,10021,108,126,126,1044011,1014280050,3343,"(40.7709460001, -73.9594960004)"
9916,3,Free,BPL,Red Hook - Brooklyn Public Library,7 WOLCOTT STREET,40.6752551911,-74.0103512916,"981,378.71997","185,290.252829",Library,,Brooklyn,BPLUNWIRED,,09/09/9999,3,Brooklyn,BK33,Carroll Gardens-Columbia Street-Red Hook,38,11231,306,53,53,3008650,3005770029,326,"(40.6752551911, -74.0103512916)"
12712,1,Free,LinkNYC - Citybridge,mn-06-143917,725 Lexington Ave,40.7615592304,-73.9683905603,"993,006.598289","216,734.870058",Outdoor Kiosk,"Tablet Internet -phone , Free 1 GB Wi-FI Service",New York,LinkNYC Free Wi-Fi,LINK-000698,06/27/2017,1,Manhattan,MN19,Turtle Bay-East Midtown,4,10022,106,112,112,1086160,1013137500,3289,"(40.7615592304, -73.9683905603)"
10320,3,Free,LinkNYC - Citybridge,bk-05-145942,3368 FULTON STREET,40.6838205904,-73.8713797301,"1,019,922.57726","188,436.894173",Outdoor Kiosk,"Tablet Internet -phone , Free 1 GB Wi-FI Service",Brooklyn,LinkNYC Free Wi-Fi,LINK-021920,12/07/2017,3,Brooklyn,BK83,Cypress Hills-City Line,37,11208,305,184,184,3092807,3041470040,4725,"(40.6838205904, -73.8713797301)"
11112,2,Free,LinkNYC - Citybridge,bx-07-145853,2620 BRIGGS AVENUE,40.8648700001,-73.8927999994,"1,013,900.9876","254,391.24422",Outdoor Kiosk,"Tablet Internet -phone , Free 1 GB Wi-FI Service",Bronx,LinkNYC Free Wi-Fi,LINK-018398,10/26/2017,2,Bronx,BX05,Bedford Park-Fordham North,15,10458,207,399,399,2000000,2032930050,4555,"(40.8648700001, -73.8927999994)"
9652,1,Free,LinkNYC - Citybridge,mn-06-134559,378 3 AVENUE,40.7415361403,-73.9813326198,"989,422.881703","209,438.782944",Outdoor Kiosk,"Tablet Internet -phone , Free 1 GB Wi-FI Service",New York,LinkNYC Free Wi-Fi,LINK-000277,01/17/2019,1,Manhattan,MN21,Gramercy,2,10016,106,68,68,1018177,1008830040,4851,"(40.7415361403, -73.9813326198)"
12771,1,Free,LinkNYC - Citybridge,mn-07-120535,856 AMSTERDAM AVE,40.7978261899,-73.9677477303,"993,179.813165","229,948.214038",Outdoor Kiosk,"Tablet Internet -phone , Free 1 GB Wi-FI Service",New York,LinkNYC Free Wi-Fi,LINK-003875,10/10/2016,1,Manhattan,MN12,Upper West Side,7,10025,107,187,187,1056513,1018730040,3698,"(40.7978261899, -73.9677477303)"
11085,1,Free,LinkNYC - Citybridge,mn-10-119893,2730 FREDERICK DOUGLASS BOULEVARD,40.8229240001,-73.9417229998,"1,000,379.29877","239,095.960506",Outdoor Kiosk,"Tablet Internet -phone , Free 1 GB Wi-FI Service",New York,LinkNYC Free Wi-Fi,LINK-013348,10/19/2016,1,Manhattan,MN03,Central Harlem North-Polo Grounds,9,10039,110,232,232,1088715,1020310000,4282,"(40.8229240001, -73.9417229998)"
10465,3,Limited Free,ALTICEUSA,MARIA HERNANDEZ,IN PARK LEFT SIDE OF BASKETBNALL COURTS NORTH SIDE,40.7033079996,-73.9240869998,"1,005,298.17246","195,519.66216",Outdoor,3 free 10 min sessions,Brooklyn,GuestWiFi,,09/09/9999,3,Brooklyn,BK77,Bushwick North,34,11237,304,429,429,0,3032030001,842,"(40.7033079996, -73.9240869998)"
10661,1,Free,LinkNYC - Citybridge,mn-07-136130,2114 BROADWAY,40.7800194697,-73.9813959896,"989,402.343686","223,459.517698",Outdoor Kiosk,"Tablet Internet -phone , Free 1 GB Wi-FI Service",New York,LinkNYC Free Wi-Fi,LINK-000949,10/16/2017,1,Manhattan,MN14,Lincoln Square,6,10023,107,159,159,1030545,1011657510,3419,"(40.7800194697, -73.9813959896)"
12313,4,Free,LinkNYC - Citybridge,qu-02-124955,38-02 QUEENS BLVD,40.74387741,-73.9269261104,"1,004,498.65076","210,299.676563",Outdoor Kiosk,"Tablet Internet -phone , Free 1 GB Wi-FI Service",Queens,LinkNYC Free Wi-Fi,LINK-001160,02/21/2017,4,Queens,QN31,Hunters Point-Sunnyside-West Maspeth,26,11101,402,179,179,4003169,4002230020,3496,"(40.74387741, -73.9269261104)"
10978,1,Free,AT&T,Marcus Garvey Park,Amphitheater,40.8048000002,-73.9443,"999,670.262455","232,492.276207",Outdoor,,New York,attwifi,,09/09/9999,1,Manhattan,MN34,East Harlem North,9,10027,111,198,198,0,1017190001,11,"(40.8048000002, -73.9443)"
12154,1,Free,LinkNYC - Citybridge,mn-05-133690,333 5 AVENUE,40.7476272599,-73.9850371596,"988,395.94478","211,657.775225",Outdoor Kiosk,"Tablet Internet -phone , Free 1 GB Wi-FI Service",New York,LinkNYC Free Wi-Fi,LINK-012563,10/20/2017,1,Manhattan,MN17,Midtown-Midtown South,4,10016,105,74,74,1017033,1008620070,4169,"(40.7476272599, -73.9850371596)"
12553,1,Free,LinkNYC - Citybridge,mn-04-107977,221 8 AVENUE,40.7442600298,-73.9993978695,"984,416.848408","210,430.63201",Outdoor Kiosk,"Tablet Internet -phone , Free 1 GB Wi-FI Service",New York,LinkNYC Free Wi-Fi,LINK-000464,04/06/2016,1,Manhattan,MN13,Hudson Yards-Chelsea-Flatiron-Union Square,3,10011,104,89,89,1087948,1007457500,3204,"(40.7442600298, -73.9993978695)"
12564,1,Free,LinkNYC - Citybridge,mn-04-122503,300 West 57Th St,40.7666381202,-73.9830918204,"988,933.62776","218,584.149168",Outdoor Kiosk,"Tablet Internet -phone , Free 1 GB Wi-FI Service",New York,LinkNYC Free Wi-Fi,LINK-000484,07/07/2016,1,Manhattan,MN15,Clinton,3,10019,104,139,139,1025451,1010477500,3215,"(40.7666381202, -73.9830918204)"
10753,2,Limited Free,ALTICEUSA,Ferry Point Park,BALCOM AV 2/P/N/O SAMPSON AV,40.818752,-73.82456,"1,032,809.46422","237,619.212147",Outdoor,3 free 10 min sessions,Bronx,GuestWiFi,,09/09/9999,2,Bronx,BX52,Schuylerville-Throgs Neck-Edgewater Park,13,10465,210,110,110,0,0,1303,"(40.818752, -73.82456)"
10047,1,Free,NYPL,Roosevelt Island,524 MAIN STREET,40.7612533724,-73.9501658898,"998,055.346721","216,625.783006",Library,,New York,NYPL,,09/09/9999,1,Manhattan,MN31,Lenox Hill-Roosevelt Island,5,10044,108,23801,23801,1084695,1013730030,468,"(40.7612533724, -73.9501658898)"
12599,1,Free,LinkNYC - Citybridge,mn-09-120434,546 WEST 147 STREET,40.8275800002,-73.9492880002,"998,284.555252","240,791.008297",Outdoor Kiosk,"Tablet Internet -phone , Free 1 GB Wi-FI Service",New York,LinkNYC Free Wi-Fi,LINK-002061,08/22/2016,1,Manhattan,MN04,Hamilton Heights,7,10031,109,233,233,1061968,1020780060,3605,"(40.8275800002, -73.9492880002)"
10425,3,Free,Downtown Brooklyn,,110 Livingston St.,40.6908829998,-73.9896349995,"987,124.408937","190,983.916638",Outdoor,,Brooklyn,Downtown Brooklyn WiFi,,09/09/9999,3,Brooklyn,BK09,Brooklyn Heights-Cobble Hill,33,11201,302,9,9,3002642,3002697501,285,"(40.6908829998, -73.9896349995)"
12594,3,Free,Downtown Brooklyn,,254 Flatbush Ave. Extension (pole),40.6927230002,-73.9830250002,"988,957.355731","191,654.56884",Outdoor,,Brooklyn,Downtown Brooklyn WiFi,,09/09/9999,3,Brooklyn,BK38,DUMBO-Vinegar Hill-Downtown Brooklyn-Boerum Hill,33,11201,302,15,15,0,3020600008,999,"(40.6927230002, -73.9830250002)"
11935,3,Free,LinkNYC - Citybridge,bk-08-145992,685 Franklin Ave,40.6751409996,-73.9562809996,"996,376.960314","185,251.506187",Outdoor Kiosk,"Tablet Internet -phone , Free 1 GB Wi-FI Service",Brooklyn,LinkNYC Free Wi-Fi,LINK-018096,02/01/2018,3,Brooklyn,BK61,Crown Heights North,35,11216,308,221,221,3030857,3012240000,4483,"(40.6751409996, -73.9562809996)"
11474,1,Free,LinkNYC - Citybridge,mn-05-122871,2 WEST 53 STREET,40.7604737301,-73.9760991397,"990,871.238714","216,338.710089",Outdoor Kiosk,"Tablet Internet -phone , Free 1 GB Wi-FI Service",New York,LinkNYC Free Wi-Fi,LINK-013920,10/20/2017,1,Manhattan,MN17,Midtown-Midtown South,4,10019,105,104,104,1034520,1012687500,4369,"(40.7604737301, -73.9760991397)"
12468,1,Free,LinkNYC - Citybridge,mn-07-120268,301 WEST 109 STREET,40.8037209997,-73.967381,"993,280.551481","232,095.937105",Outdoor Kiosk,"Tablet Internet -phone , Free 1 GB Wi-FI Service",New York,LinkNYC Free Wi-Fi,LINK-001605,06/29/2016,1,Manhattan,MN09,Morningside Heights,7,10025,107,195,195,1057315,1018930040,3553,"(40.8037209997, -73.967381)"
12882,2,Free,LinkNYC - Citybridge,bx-07-145690,30 EAST KINGSBRIDGE ROAD,40.8670379998,-73.8965369996,"1,012,866.41946","255,179.887656",Outdoor Kiosk,"Tablet Internet -phone , Free 1 GB Wi-FI Service",Bronx,LinkNYC Free Wi-Fi,LINK-005579,11/08/2016,2,Bronx,BX05,Bedford Park-Fordham North,14,10468,207,401,401,2014144,2031910040,3736,"(40.8670379998, -73.8965369996)"
12441,1,Free,LinkNYC - Citybridge,mn-07-100260,214 WEST 96 STREET,40.7944615402,-73.9715730901,"992,121.068564","228,721.988472",Outdoor Kiosk,"Tablet Internet -phone , Free 1 GB Wi-FI Service",New York,LinkNYC Free Wi-Fi,LINK-001504,11/23/2016,1,Manhattan,MN12,Upper West Side,6,10025,107,183,183,1033707,1012430040,3526,"(40.7944615402, -73.9715730901)"
11225,1,Free,LinkNYC - Citybridge,mn-05-121950,32 EAST 50 STREET,40.7577338402,-73.9754336596,"991,055.87614","215,340.529671",Outdoor Kiosk,"Tablet Internet -phone , Free 1 GB Wi-FI Service",New York,LinkNYC Free Wi-Fi,LINK-013801,05/09/2017,1,Manhattan,MN17,Midtown-Midtown South,4,10022,105,102,102,1035455,1012850020,4350,"(40.7577338402, -73.9754336596)"
12805,1,Free,LinkNYC - Citybridge,mn-01-123076,110 Maiden Lane,40.7062418498,-74.0062435098,"982,518.956534","196,579.493046",Outdoor Kiosk,"Tablet Internet -phone , Free 1 GB Wi-FI Service",New York,LinkNYC Free Wi-Fi,LINK-000774,02/09/2018,1,Manhattan,MN25,Battery Park City-Lower Manhattan,1,10005,101,7,7,1000880,1000390010,3309,"(40.7062418498, -74.0062435098)"
11437,1,Free,LinkNYC - Citybridge,mn-05-121630,31 EAST 26 STREET,40.7427595303,-73.9864199897,"988,013.06136","209,884.243339",Outdoor Kiosk,"Tablet Internet -phone , Free 1 GB Wi-FI Service",New York,LinkNYC Free Wi-Fi,LINK-010807,04/14/2017,1,Manhattan,MN13,Hudson Yards-Chelsea-Flatiron-Union Square,2,10010,105,56,56,1016880,1008560020,3933,"(40.7427595303, -73.9864199897)"
11286,1,Free,LinkNYC - Citybridge,mn-02-123600,1 ST LUKES PLACE,40.7302576896,-74.0066285504,"982,412.864227","205,329.206517",Outdoor Kiosk,"Tablet Internet -phone , Free 1 GB Wi-FI Service",New York,LinkNYC Free Wi-Fi,LINK-010750,01/26/2017,1,Manhattan,MN23,West Village,3,10014,102,67,67,1009773,1005830000,3916,"(40.7302576896, -74.0066285504)"
12405,3,Free,Transit Wireless,"Court St (M,R)/Borough Hall (2,3,4,5)","Court St (M,R)/Borough Hall (2,3,4,5)",40.6932189996,-73.9899979996,"987,023.645031","191,834.978257",Subway Station,SN 335,Brooklyn,TransitWirelessWiFi,,09/09/9999,3,Brooklyn,BK38,DUMBO-Vinegar Hill-Downtown Brooklyn-Boerum Hill,33,11201,302,11,11,0,3001390001,1736,"(40.6932189996, -73.9899979996)"
11555,1,Limited Free,SPECTRUM,Pelham Fritz Recreation Center,Amplitheater,40.8050129997,-73.9449089999,"999,501.615154","232,569.772771",Indoor,3 free 10 min sessions,New York,GuestWiFi,0,09/09/9999,1,Manhattan,MN34,East Harlem North,9,10027,111,198,198,1083967,1017190001,1079,"(40.8050129997, -73.9449089999)"
9770,2,Free,LinkNYC - Citybridge,bx-01-142736,613 WESTCHESTER AVENUE,40.8161882102,-73.9099166103,"1,009,184.8599","236,649.324979",Outdoor Kiosk,"Tablet Internet -phone , Free 1 GB Wi-FI Service",Bronx,LinkNYC Free Wi-Fi,LINK-014393,06/26/2018,2,Bronx,BX34,Melrose South-Mott Haven North,17,10455,201,75,75,2115751,2026240090,4887,"(40.8161882102, -73.9099166103)"
12915,4,Free,LinkNYC - Citybridge,qu-06-124181,110-88 QUEENS BOULEVARD,40.7186019996,-73.8381840006,"1,029,105.9293","201,124.039403",Outdoor Kiosk,"Tablet Internet -phone , Free 1 GB Wi-FI Service",Queens,LinkNYC Free Wi-Fi,LINK-006861,07/29/2016,4,Queens,QN17,Forest Hills,29,11375,406,769,769,4078802,4032930040,3769,"(40.7186019996, -73.8381840006)"
12091,2,Free,LinkNYC - Citybridge,bx-07-119564,48 WEST FORDHAM ROAD,40.8626436497,-73.9032440399,"1,011,013.1151","253,576.735678",Outdoor Kiosk,"Tablet Internet -phone , Free 1 GB Wi-FI Service",Bronx,LinkNYC Free Wi-Fi,LINK-000070,09/15/2016,2,Bronx,BX30,Kingsbridge Heights,14,10468,207,253,253,2014307,2031990020,3046,"(40.8626436497, -73.9032440399)"
9634,1,Free,LinkNYC - Citybridge,mn-08-121048,26 EAST 84 STREET,40.7795609103,-73.9599541,"995,340.70845","223,294.436991",Outdoor Kiosk,"Tablet Internet -phone , Free 1 GB Wi-FI Service",New York,LinkNYC Free Wi-Fi,LINK-010697,09/09/9999,1,Manhattan,MN40,Upper East Side-Carnegie Hill,4,10028,108,142,142,1046790,1014950060,4833,"(40.7795609103, -73.9599541)"
12297,4,Free,LinkNYC - Citybridge,qu-09-128371,80-55 KEW GARDENS ROAD,40.7131669699,-73.8298089703,"1,031,431.35969","199,148.295651",Outdoor Kiosk,"Tablet Internet -phone , Free 1 GB Wi-FI Service",Queens,LinkNYC Free Wi-Fi,LINK-001122,07/29/2016,4,Queens,QN60,Kew Gardens,29,11415,409,216,216,4080149,4033580000,3480,"(40.7131669699, -73.8298089703)"
10794,1,Free,Transit Wireless,"Central Park North-110 St (2,3)",Central Av (M),40.7990749998,-73.9518220006,"997,588.982168","230,405.223294",Subway Station,SN 441,New York,TransitWirelessWiFi,,09/09/9999,1,Manhattan,MN11,Central Harlem South,9,10026,110,186,186,0,0,1616,"(40.7990749998, -73.9518220006)"
11631,1,Limited Free,SPECTRUM,West Harlem Piers,Pier and South Seating Area,40.8205899999,-73.9596899999,"995,406.972097","238,242.801451",Outdoor,3 free 10 min sessions,New York,GuestWiFi,0,09/09/9999,1,Manhattan,MN06,Manhattanville,7,10027,109,22302,22302,0,1020050024,1187,"(40.8205899999, -73.9596899999)"
10648,1,Free,LinkNYC - Citybridge,mn-07-134274,1967 BROADWAY,40.77464584,-73.9823998204,"989,124.7281","221,501.66597",Outdoor Kiosk,"Tablet Internet -phone , Free 1 GB Wi-FI Service",New York,LinkNYC Free Wi-Fi,LINK-000930,07/19/2016,1,Manhattan,MN14,Lincoln Square,6,10023,107,153,153,1028839,1011387500,3406,"(40.77464584, -73.9823998204)"
11025,1,Free,LinkNYC - Citybridge,mn-06-137452,685 2 AVENUE,40.7468675402,-73.9745200604,"991,310.131865","211,381.657667",Outdoor Kiosk,"Tablet Internet -phone , Free 1 GB Wi-FI Service",New York,LinkNYC Free Wi-Fi,LINK-012792,03/23/2018,1,Manhattan,MN20,Murray Hill-Kips Bay,4,10016,106,78,78,1020339,1009180030,4222,"(40.7468675402, -73.9745200604)"
10094,2,Free,NYPL,Bronx Library Center,310 East Kingsbridge Road,40.8629806052,-73.8945028865,"1,013,430.80678","253,702.292842",Library,,Bronx,NYPL,,09/09/9999,2,Bronx,BX05,Bedford Park-Fordham North,15,10458,207,39901,39901,2116006,2031540083,520,"(40.8629806052, -73.8945028865)"
10208,3,Free,NYCHA,0,50 Monument Walk,40.695295,-73.9801031998,"989,767.390528","192,591.794656",Outdoor,,Brooklyn,DowntownBrooklynWiFi_Fon,,09/09/9999,3,Brooklyn,BK68,Fort Greene,35,11205,302,2901,2901,3335230,3020340001,648,"(40.695295, -73.9801031998)"
10693,1,Free,LinkNYC - Citybridge,mn-07-133810,2321 BROADWAY,40.7872468703,-73.9776456494,"990,440.320941","226,092.948454",Outdoor Kiosk,"Tablet Internet -phone , Free 1 GB Wi-FI Service",New York,LinkNYC Free Wi-Fi,LINK-000994,12/14/2016,1,Manhattan,MN12,Upper West Side,6,10024,107,171,171,1033104,1012327500,3451,"(40.7872468703, -73.9776456494)"
9620,1,Free,LinkNYC - Citybridge,mn-05-121484,222 LEXINGTON AVENUE,40.7458632901,-73.9802332999,"989,727.156357","211,015.368373",Outdoor Kiosk,"Tablet Internet -phone , Free 1 GB Wi-FI Service",New York,LinkNYC Free Wi-Fi,LINK-000653,06/12/2018,1,Manhattan,MN20,Murray Hill-Kips Bay,2,10016,105,72,72,1018492,1008890020,4819,"(40.7458632901, -73.9802332999)"
9915,2,Free,NYPL,Woodlawn Heights,4355 KATONAH AVENUE,40.9004399098,-73.867942,"1,020,757.04476","267,360.164804",Library,,Bronx,NYPL,,09/09/9999,2,Bronx,BX62,Woodlawn-Wakefield,11,10470,212,44902,44902,2019288,2033800054,325,"(40.9004399098, -73.867942)"
10498,1,Free,Chelsea,,10th between 15th and 16th,40.7431927759,-74.0073877576,"982,202.843649","210,041.883116",Outdoor,,New York,CICFreeWiFi,,09/09/9999,1,Manhattan,MN13,Hudson Yards-Chelsea-Flatiron-Union Square,3,10011,104,83,83,0,0,67,"(40.7431927759, -74.0073877576)"
12643,3,Free,LinkNYC - Citybridge,bk-06-125928,63 5 AVENUE,40.6807317996,-73.9774460905,"990,505.574091","187,286.174362",Outdoor Kiosk,"Tablet Internet -phone , Free 1 GB Wi-FI Service",Brooklyn,LinkNYC Free Wi-Fi,LINK-002670,06/23/2017,3,Brooklyn,BK37,Park Slope-Gowanus,39,11217,306,129,129,3018705,3009350010,3643,"(40.6807317996, -73.9774460905)"
11353,1,Free,Transit Wireless,"Times Square - 1, 2, 3",Times Square - 42nd Street,40.75529,-73.9874950005,"987,714.520946","214,449.452056",Subway Station,SN 317,New York,TransitWirelessWiFi,,09/09/9999,1,Manhattan,MN17,Midtown-Midtown South,3,10018,105,113,113,0,0,1553,"(40.75529, -73.9874950005)"
10192,4,Free,LinkNYC - Citybridge,qu-01-145921,35-12 35 AVENUE,40.7565208602,-73.9252146106,"1,004,968.97167","214,906.491497",Outdoor Kiosk,"Tablet Internet -phone , Free 1 GB Wi-FI Service",Queens,LinkNYC Free Wi-Fi,LINK-020933,10/09/2017,4,Queens,QN70,Astoria,26,11106,401,57,57,4009594,4006390020,4640,"(40.7565208602, -73.9252146106)"
12330,1,Free,LinkNYC - Citybridge,mn-07-133632,210 West 90st,40.7906900002,-73.9744619998,"991,321.564913","227,347.639843",Outdoor Kiosk,"Tablet Internet -phone , Free 1 GB Wi-FI Service",New York,LinkNYC Free Wi-Fi,LINK-001487,04/20/2018,1,Manhattan,MN12,Upper West Side,6,10024,107,175,175,1033308,1012370020,3513,"(40.7906900002, -73.9744619998)"
12221,1,Free,LinkNYC - Citybridge,mn-06-121521,155 East 38Th Street,40.7483832896,-73.9763442995,"990,804.511813","211,933.752035",Outdoor Kiosk,"Tablet Internet -phone , Free 1 GB Wi-FI Service",New York,LinkNYC Free Wi-Fi,LINK-000232,03/10/2016,1,Manhattan,MN20,Murray Hill-Kips Bay,4,10016,106,80,80,1019272,1008947500,3104,"(40.7483832896, -73.9763442995)"
12814,4,Free,LinkNYC - Citybridge,qu-12-141550,166-01 JAMAICA AVENUE,40.7059714299,-73.7937866001,"1,041,423.84791","196,548.206035",Outdoor Kiosk,"Tablet Internet -phone , Free 1 GB Wi-FI Service",Queens,LinkNYC Free Wi-Fi,LINK-000793,09/23/2016,4,Queens,QN61,Jamaica,27,11432,412,460,460,4209622,4097960020,3318,"(40.7059714299, -73.7937866001)"
12695,1,Free,LinkNYC - Citybridge,mn-06-134680,81 LEXINGTON AVENUE,40.7414809996,-73.9831980002,"988,905.973616","209,418.588759",Outdoor Kiosk,"Tablet Internet -phone , Free 1 GB Wi-FI Service",New York,LinkNYC Free Wi-Fi,LINK-000606,07/19/2017,1,Manhattan,MN21,Gramercy,2,10016,106,68,68,1018134,1008820030,3272,"(40.7414809996, -73.9831980002)"
9809,1,Limited Free,SPECTRUM,Jackie Robinson Recreation Center,Library,40.8241309998,-73.9424640006,"1,000,173.92352","239,535.578721",Indoor,3 free 10 min sessions,New York,GuestWiFi,0,09/09/9999,1,Manhattan,MN04,Hamilton Heights,9,10039,110,231,231,1084164,1020520001,949,"(40.8241309998, -73.9424640006)"
12340,1,Free,LinkNYC - Citybridge,mn-07-133624,2518 BROADWAY,40.7931808696,-73.9726485797,"991,823.424146","228,255.301085",Outdoor Kiosk,"Tablet Internet -phone , Free 1 GB Wi-FI Service",New York,LinkNYC Free Wi-Fi,LINK-001501,08/07/2017,1,Manhattan,MN12,Upper West Side,6,10025,107,179,179,1033652,1012410050,3523,"(40.7931808696, -73.9726485797)"
11645,4,Limited Free,SPECTRUM,"Phil ""Scooter"" Rizzuto Park",North West side of Park,40.6950769996,-73.8228169995,"1,033,383.04345","192,561.434809",Outdoor TWC Aerial,3 free 10 min sessions,Queens,GuestWiFi,0,09/09/9999,4,Queens,QN54,Richmond Hill,28,11419,409,148,148,0,0,1201,"(40.6950769996, -73.8228169995)"
12660,1,Free,LinkNYC - Citybridge,mn-04-136982,601 8 Avenue,40.7554999999,-73.9914250005,"986,625.70357","214,525.830841",Outdoor Kiosk,"Tablet Internet -phone , Free 1 GB Wi-FI Service",New York,LinkNYC Free Wi-Fi,LINK-000524,04/11/2016,1,Manhattan,MN15,Clinton,3,10018,104,115,115,1013686,1007630030,3237,"(40.7554999999, -73.9914250005)"
10935,1,Free,Harlem,,pole 76 - 7ASEC133,40.8139300002,-73.9449549995,"999,486.838937","235,818.544161",Outdoor,,New York,Harlem Wi-Fi,,09/09/9999,1,Manhattan,MN03,Central Harlem North-Polo Grounds,9,10027,110,226,226,0,0,769,"(40.8139300002, -73.9449549995)"
10258,3,Free,LinkNYC - Citybridge,bk-01-146000,101 NORTH 5 STREET,40.7176582282,-73.9603011562,"995,254.812296","200,741.257688",Outdoor Kiosk,"Tablet Internet -phone , Free 1 GB Wi-FI Service",Brooklyn,LinkNYC Free Wi-Fi,LINK-021163,02/01/2018,3,Brooklyn,BK73,North Side-South Side,33,11249,301,555,555,3062172,3023347500,4663,"(40.7176582282, -73.9603011562)"
12392,3,Free,Transit Wireless,"Euclid Av (A,C)","Euclid Av (A,C)",40.675377,-73.8721059998,"1,019,725.63934","185,360.359316",Subway Station,SN 188,Brooklyn,TransitWirelessWiFi,,09/09/9999,3,Brooklyn,BK82,East New York,42,11208,305,1196,1196,0,0,1722,"(40.675377, -73.8721059998)"
9759,1,Free,LinkNYC - Citybridge,mn-05-138316,51 EAST 26 STREET,40.7423220602,-73.9853807405,"988,301.067017","209,724.905403",Outdoor Kiosk,"Tablet Internet -phone , Free 1 GB Wi-FI Service",New York,LinkNYC Free Wi-Fi,LINK-010812,05/24/2018,1,Manhattan,MN13,Hudson Yards-Chelsea-Flatiron-Union Square,2,10010,105,56,56,1016880,1008560020,4876,"(40.7423220602, -73.9853807405)"
11705,3,Limited Free,ALTICEUSA,Coney Island Beach & Boardwalk,ROOF OF ABE STARK ICE RINK-RIGHT SIDE FRONT,40.5726749996,-73.9856179998,"988,245.469031","147,917.723572",Outdoor,3 free 10 min sessions,Brooklyn,GuestWiFi,,09/09/9999,3,Brooklyn,BK21,Seagate-Coney Island,47,11224,313,352,352,3189656,3070730101,1262,"(40.5726749996, -73.9856179998)"
10483,2,Limited Free,ALTICEUSA,Williamsbridge Oval,RESERVOIR OVAL E  2/P/S/O RESERVOIR PL,40.8784449997,-73.8754800001,"1,018,684.57974","259,343.482675",Outdoor,3 free 10 min sessions,Bronx,GuestWiFi,,09/09/9999,2,Bronx,BX43,Norwood,11,10467,207,423,423,0,0,861,"(40.8784449997, -73.8754800001)"
11690,3,Limited Free,ALTICEUSA,Coney Island Beach & Boardwalk,ROOF OF AQUARIUM,40.5735509999,-73.9773659998,"990,537.877832","148,237.356462",Outdoor,3 free 10 min sessions,Brooklyn,GuestWiFi,,09/09/9999,3,Brooklyn,BK21,Seagate-Coney Island,47,11224,313,352,352,3245159,3086970008,1247,"(40.5735509999, -73.9773659998)"
10240,4,Free,LinkNYC - Citybridge,qu-02-146059,47-43 VERNON BOULEVARD,40.7443204903,-73.9534837102,"997,139.500128","210,456.081434",Outdoor Kiosk,"Tablet Internet -phone , Free 1 GB Wi-FI Service",Queens,LinkNYC Free Wi-Fi,LINK-020994,04/24/2018,4,Queens,QN31,Hunters Point-Sunnyside-West Maspeth,26,11101,402,7,7,4000266,4000450000,4645,"(40.7443204903, -73.9534837102)"
10321,3,Free,LinkNYC - Citybridge,bk-05-145941,3386 FULTON STREET,40.6840608397,-73.8705374096,"1,020,156.06367","188,524.768013",Outdoor Kiosk,"Tablet Internet -phone , Free 1 GB Wi-FI Service",Brooklyn,LinkNYC Free Wi-Fi,LINK-021921,11/21/2017,3,Brooklyn,BK83,Cypress Hills-City Line,37,11208,305,184,184,3327234,3041480040,4726,"(40.6840608397, -73.8705374096)"
10967,1,Free,Harlem,,pole 09: 119C5av,40.8026839999,-73.9451580005,"999,433.212076","231,721.193103",Outdoor,,New York,Harlem Wi-Fi,,09/09/9999,1,Manhattan,MN11,Central Harlem South,9,10026,110,200,200,0,0,801,"(40.8026839999, -73.9451580005)"
12589,1,Free,LinkNYC - Citybridge,mn-09-134828,3559 BROADWAY,40.8270435498,-73.9502261503,"998,025.033134","240,595.410919",Outdoor Kiosk,"Tablet Internet -phone , Free 1 GB Wi-FI Service",New York,LinkNYC Free Wi-Fi,LINK-002057,09/18/2017,1,Manhattan,MN04,Hamilton Heights,7,10031,109,229,229,1062381,1020920040,3602,"(40.8270435498, -73.9502261503)"
10064,4,Free,QPL,Ozone Park,92-24 ROCKAWAY BOULEVARD,40.6808618482,-73.8464887284,"1,026,827.92992","187,370.057724",Library,,Ozone Park,QBPL_WIRELESS,,09/09/9999,4,Queens,QN56,Ozone Park,32,11417,410,54,54,4189526,4091130030,488,"(40.6808618482, -73.8464887284)"
9842,1,Limited Free,SPECTRUM,Jackie Robinson Recreation Center,Admin Office,40.8241309998,-73.9424640006,"1,000,173.92352","239,535.578721",Indoor,3 free 10 min sessions,New York,GuestWiFi,0,09/09/9999,1,Manhattan,MN04,Hamilton Heights,9,10039,110,231,231,1084164,1020520001,982,"(40.8241309998, -73.9424640006)"
9953,4,Free,QPL,Court Square,25-01 JACKSON AVENUE,40.7470624208,-73.9442436779,"999,699.244352","211,456.548921",Library,,Long Island City,QBPL_WIRELESS,,09/09/9999,4,Queens,QN31,Hunters Point-Sunnyside-West Maspeth,26,11101,402,19,19,4539937,4000790030,368,"(40.7470624208, -73.9442436779)"
12308,4,Free,LinkNYC - Citybridge,qu-02-124939,59-40 QUEENS BOULEVARD,40.7412880001,-73.9046559997,"1,010,670.68534","209,362.205013",Outdoor Kiosk,"Tablet Internet -phone , Free 1 GB Wi-FI Service",Queens,LinkNYC Free Wi-Fi,LINK-001149,01/05/2017,4,Queens,QN63,Woodside,26,11377,402,245,245,4432196,4023140000,3491,"(40.7412880001, -73.9046559997)"
12201,1,Free,LinkNYC - Citybridge,mn-08-135088,1284 1 AVENUE,40.7656654522,-73.9574087323,"996,048.109266","218,232.190226",Outdoor Kiosk,"Tablet Internet -phone , Free 1 GB Wi-FI Service",New York,LinkNYC Free Wi-Fi,LINK-012770,05/11/2018,1,Manhattan,MN31,Lenox Hill-Roosevelt Island,5,10065,108,116,116,1045578,1014630050,4216,"(40.7656654522, -73.9574087323)"
11401,1,Free,Transit Wireless,18 Street - 1,18th Street - 7th Avenue,40.7410399998,-73.9978709994,"984,839.96764","209,257.479173",Subway Station,SN 321,New York,TransitWirelessWiFi,,09/09/9999,1,Manhattan,MN13,Hudson Yards-Chelsea-Flatiron-Union Square,3,10011,104,81,81,0,0,1512,"(40.7410399998, -73.9978709994)"
11395,2,Free,Transit Wireless,IRT-2-5-149TH ST - GRAND CONCOURSE,149 St - Grand Concourse,40.81841,-73.9267179996,"1,004,533.60083","237,454.466086",Subway Station,SN 435,Bronx,TransitWirelessWiFi,,09/09/9999,2,Bronx,BX39,Mott Haven-Port Morris,17,10451,201,51,51,0,0,1506,"(40.81841, -73.9267179996)"
10412,1,Free,Harlem,,42 West 120th Street_THAL (new),40.8037859998,-73.9461589995,"999,155.835006","232,122.518416",Outdoor,,New York,Harlem Wi-Fi,,09/09/9999,1,Manhattan,MN11,Central Harlem South,9,10027,110,200,200,1053274,1017187501,268,"(40.8037859998, -73.9461589995)"
12905,1,Free,LinkNYC - Citybridge,mn-12-111803,2002 AMSTERDAM AVE,40.8342453801,-73.9411590502,"1,000,532.61211","243,220.857768",Outdoor Kiosk,"Tablet Internet -phone , Free 1 GB Wi-FI Service",New York,LinkNYC Free Wi-Fi,LINK-006041,07/21/2016,1,Manhattan,MN36,Washington Heights South,7,10032,112,245,245,1062798,1021180040,3759,"(40.8342453801, -73.9411590502)"
12538,1,Free,LinkNYC - Citybridge,mn-05-122631,916 7 AVENUE,40.7661480002,-73.9797210006,"989,867.39853","218,405.78043",Outdoor Kiosk,"Tablet Internet -phone , Free 1 GB Wi-FI Service",New York,LinkNYC Free Wi-Fi,LINK-000375,07/12/2017,1,Manhattan,MN17,Midtown-Midtown South,4,10019,105,137,137,1024904,1010290040,3189,"(40.7661480002, -73.9797210006)"
12910,3,Free,LinkNYC - Citybridge,bk-02-108350,36 NEVINS STREET,40.6874572699,-73.9819201796,"989,264.130708","189,736.170446",Outdoor Kiosk,"Tablet Internet -phone , Free 1 GB Wi-FI Service",Brooklyn,LinkNYC Free Wi-Fi,LINK-006141,03/29/2018,3,Brooklyn,BK38,DUMBO-Vinegar Hill-Downtown Brooklyn-Boerum Hill,33,11217,302,37,37,3000000,3001660040,3764,"(40.6874572699, -73.9819201796)"
12096,2,Free,LinkNYC - Citybridge,bx-05-119570,100 E Fordham Rd,40.8620857697,-73.8995205706,"1,012,043.27544","253,374.637985",Outdoor Kiosk,"Tablet Internet -phone , Free 1 GB Wi-FI Service",Bronx,LinkNYC Free Wi-Fi,LINK-000087,07/20/2017,2,Bronx,BX40,Fordham South,14,10468,205,237,237,2013908,2031730030,3051,"(40.8620857697, -73.8995205706)"
10799,2,Free,Transit Wireless,IRT - East 143 St-St Mary's St (6),East 143 St-St Mary's St (6),40.808719,-73.9076570006,"1,009,813.18279","233,928.677862",Subway Station,SN 374,Bronx,TransitWirelessWiFi,,09/09/9999,2,Bronx,BX39,Mott Haven-Port Morris,8,10454,201,31,31,0,0,1621,"(40.808719, -73.9076570006)"
12232,1,Free,LinkNYC - Citybridge,mn-06-133527,205 3 AVENUE,40.736214,-73.9848999999,"988,434.666159","207,499.568318",Outdoor Kiosk,"Tablet Internet -phone , Free 1 GB Wi-FI Service",New York,LinkNYC Free Wi-Fi,LINK-000253,07/14/2016,1,Manhattan,MN21,Gramercy,2,10003,106,48,48,1019580,1008990000,3115,"(40.736214, -73.9848999999)"
9772,1,Free,LinkNYC - Citybridge,mn-02-123585,623 HUDSON STREET,40.7382777799,-74.0056712102,"982,678.385021","208,251.158679",Outdoor Kiosk,"Tablet Internet -phone , Free 1 GB Wi-FI Service",New York,LinkNYC Free Wi-Fi,LINK-010844,01/17/2019,1,Manhattan,MN23,West Village,3,10014,102,79,79,1011645,1006260010,4889,"(40.7382777799, -74.0056712102)"
9639,1,Free,LinkNYC - Citybridge,mn-10-145541,2926 FREDERICK DOUGLASS BOULEVARD,40.8290024803,-73.9372792304,"1,001,607.61291","241,311.421626",Outdoor Kiosk,"Tablet Internet -phone , Free 1 GB Wi-FI Service",New York,LinkNYC Free Wi-Fi,LINK-011040,09/09/9999,1,Manhattan,MN03,Central Harlem North-Polo Grounds,9,10039,110,236,236,1000000,1020400060,4838,"(40.8290024803, -73.9372792304)"
11542,4,Limited Free,SPECTRUM,Lost Battalion Hall Recreation Center,Sr. Dinning Area,40.7316749998,-73.8656070003,"1,021,496.88252","205,874.079771",Indoor,3 free 10 min sessions,Queens,GuestWiFi,0,09/09/9999,4,Queens,QN18,Rego Park,29,11374,406,71702,71702,4050408,4020770050,1066,"(40.7316749998, -73.8656070003)"
11582,4,Limited Free,SPECTRUM,Roy Wilkins Recreation Center,Rec Office #2,40.687191,-73.7695589996,"1,048,159.07427","189,722.705578",Indoor,3 free 10 min sessions,Queens,GuestWiFi,0,09/09/9999,4,Queens,QN08,St. Albans,27,11434,412,426,426,4268835,4124060180,1136,"(40.687191, -73.7695589996)"
12345,3,Free,LinkNYC - Citybridge,bk-02-125681,60 HENRY STREET,40.69934194,-73.9921867902,"986,416.474658","194,065.684753",Outdoor Kiosk,"Tablet Internet -phone , Free 1 GB Wi-FI Service",Brooklyn,LinkNYC Free Wi-Fi,LINK-001009,02/13/2017,3,Brooklyn,BK09,Brooklyn Heights-Cobble Hill,33,11201,302,1,1,3001646,3002210020,3455,"(40.69934194, -73.9921867902)"
10988,1,Free,AT&T,The Battery,Ferry Landing,40.7029999997,-74.0167999996,"979,591.89185","195,398.774935",Outdoor,,New York,attwifi,,09/09/9999,1,Manhattan,MN99,park-cemetery-etc-Manhattan,1,10004,101,319,319,0,1000030001,23,"(40.7029999997, -74.0167999996)"
11442,1,Free,LinkNYC - Citybridge,mn-06-121433,604 2 AVENUE,40.7441540003,-73.9761899997,"990,847.683971","210,392.898162",Outdoor Kiosk,"Tablet Internet -phone , Free 1 GB Wi-FI Service",New York,LinkNYC Free Wi-Fi,LINK-010832,03/09/2018,1,Manhattan,MN20,Murray Hill-Kips Bay,2,10016,106,70,70,1078843,1009390000,3938,"(40.7441540003, -73.9761899997)"
11269,1,Free,LinkNYC - Citybridge,mn-07-134318,2373 BROADWAY,40.7887050997,-73.97641054,"990,782.201819","226,624.321079",Outdoor Kiosk,"Tablet Internet -phone , Free 1 GB Wi-FI Service",New York,LinkNYC Free Wi-Fi,LINK-010634,11/15/2017,1,Manhattan,MN12,Upper West Side,6,10024,107,175,175,1076251,1012347500,3899,"(40.7887050997, -73.97641054)"
10812,1,Free,Transit Wireless,"Lower East Side-2 Av (F,V)",2 Av (F),40.7234019998,-73.989938,"987,039.020329","202,831.556657",Subway Station,SN 232,New York,TransitWirelessWiFi,,09/09/9999,1,Manhattan,MN22,East Village,2,10003,103,3602,3602,0,0,1634,"(40.7234019998, -73.989938)"
9695,3,Limited Free,ALTICEUSA,Prospect Park,"NORTH BOAT HOUSE, ON THE LAWN ACROSS FROM M-200",40.6611970004,-73.9652520003,"993,890.561744","180,170.198437",Outdoor,3 free 10 min sessions,Brooklyn,GuestWiFi,,09/09/9999,3,Brooklyn,BK99,park-cemetery-etc-Brooklyn,39,11215,355,177,177,0,3011170001,892,"(40.6611970004, -73.9652520003)"
10273,4,Free,LinkNYC - Citybridge,qu-01-145934,33-20 30 AVENUE,40.765785254,-73.9191729969,"1,006,639.65993","218,283.299376",Outdoor Kiosk,"Tablet Internet -phone , Free 1 GB Wi-FI Service",Queens,LinkNYC Free Wi-Fi,LINK-021329,10/09/2017,4,Queens,QN70,Astoria,22,11103,401,63,63,4009036,4006250050,4678,"(40.765785254, -73.9191729969)"
10578,2,Limited Free,ALTICEUSA,St. Mary's Park,HALL CEILING-2ND FL,40.811544,-73.9141379999,"1,008,018.04858","234,956.100347",Indoor,3 free 10 min sessions,Bronx,GuestWiFi,,09/09/9999,2,Bronx,BX39,Mott Haven-Port Morris,8,10454,201,37,37,2003692,2025570001,1382,"(40.811544, -73.9141379999)"
10999,1,Free,NYPL,Battery Park City Library,175 NORTH END AVENUE,40.7154881544,-74.0162138359,"979,755.25865","199,948.555861",Library,,New York,NYPL,,09/09/9999,1,Manhattan,MN25,Battery Park City-Lower Manhattan,1,10282,101,31703,31703,1087518,1000167516,34,"(40.7154881544, -74.0162138359)"
9814,1,Free,AT&T,Thomas Paine Park,Entire Park,40.7147999999,-74.0028000002,"983,473.785989","199,697.436613",Outdoor,,New York,attwifi,,09/09/9999,1,Manhattan,MN24,SoHo-TriBeCa-Civic Center-Little Italy,1,10007,101,31,31,0,1001680001,954,"(40.7147999999, -74.0028000002)"
12144,1,Free,LinkNYC - Citybridge,mn-07-121323,1995 BROADWAY,40.7754432796,-73.9823668697,"989,133.795995","221,792.201807",Outdoor Kiosk,"Tablet Internet -phone , Free 1 GB Wi-FI Service",New York,LinkNYC Free Wi-Fi,LINK-012517,10/06/2017,1,Manhattan,MN14,Lincoln Square,6,10023,107,153,153,1070358,1011397500,4159,"(40.7754432796, -73.9823668697)"
12567,1,Free,LinkNYC - Citybridge,mn-04-122567,302 WEST 37 STREET,40.7541399203,-73.99233961,"986,372.354339","214,030.286228",Outdoor Kiosk,"Tablet Internet -phone , Free 1 GB Wi-FI Service",New York,LinkNYC Free Wi-Fi,LINK-000489,04/27/2016,1,Manhattan,MN13,Hudson Yards-Chelsea-Flatiron-Union Square,3,10018,104,111,111,1013600,1007600050,3218,"(40.7541399203, -73.99233961)"
11658,3,Limited Free,ALTICEUSA,Bensonhurst Park,FRNT OF HANDBALL COURTS,40.5975849999,-74.0011120005,"983,941.18991","156,992.735933",Outdoor,3 free 10 min sessions,Brooklyn,GuestWiFi,,09/09/9999,3,Brooklyn,BK27,Bath Beach,43,11214,311,292,292,0,3064900024,1214,"(40.5975849999, -74.0011120005)"
9869,3,Free,Downtown Brooklyn,,333 Adams St.,40.6936359997,-73.9883469996,"987,481.462029","191,986.960236",Outdoor,,Brooklyn,Downtown Brooklyn WiFi,,09/09/9999,3,Brooklyn,BK38,DUMBO-Vinegar Hill-Downtown Brooklyn-Boerum Hill,33,11201,302,11,11,3391417,3001400160,1012,"(40.6936359997, -73.9883469996)"
11903,4,Free,LinkNYC - Citybridge,qu-01-125042,36-35 33 STREET,40.7541882302,-73.9293986402,"1,003,810.48941","214,055.676925",Outdoor Kiosk,"Tablet Internet -phone , Free 1 GB Wi-FI Service",Queens,LinkNYC Free Wi-Fi,LINK-011536,03/14/2018,4,Queens,QN68,Queensbridge-Ravenswood-Long Island City,26,11106,401,55,55,4007954,4006020010,4067,"(40.7541882302, -73.9293986402)"
10049,2,Free,NYPL,Throg's Neck,3025 CROSS BRONX EXPRESSWAY,40.8229035714,-73.8190936365,"1,034,319.35523","239,134.854129",Library,,Bronx,NYPL,,09/09/9999,2,Bronx,BX52,Schuylerville-Throgs Neck-Edgewater Park,13,10465,210,158,158,2077131,2054390001,471,"(40.8229035714, -73.8190936365)"
10772,1,Free,Transit Wireless,"125 St (A,B,C,D)","125 St (A,B,C,D)",40.8111090001,-73.9523430005,"997,442.348275","234,789.554421",Subway Station,SN 153,New York,TransitWirelessWiFi,,09/09/9999,1,Manhattan,MN09,Morningside Heights,9,10027,109,20901,20901,0,0,1593,"(40.8111090001, -73.9523430005)"
11369,4,Free,Transit Wireless,PARSONS - ARCHER (JAMAICA CENTER),IND-E-J-Z-JAMAICA CENTER - PARSONS / ARCHER,40.702147,-73.8011089995,"1,039,396.83786","195,150.160931",Subway Station,SN 278,Queens,TransitWirelessWiFi,,09/09/9999,4,Queens,QN61,Jamaica,27,11433,412,246,246,0,0,1569,"(40.702147, -73.8011089995)"
10301,3,Free,LinkNYC - Citybridge,bk-07-145867,691 4 AVENUE,40.6621889998,-73.9960170003,"985,355.035836","180,529.72462",Outdoor Kiosk,"Tablet Internet -phone , Free 1 GB Wi-FI Service",Brooklyn,LinkNYC Free Wi-Fi,LINK-021522,08/22/2017,3,Brooklyn,BK32,Sunset Park West,38,11232,307,145,145,3000000,3006430000,4706,"(40.6621889998, -73.9960170003)"
11502,5,Limited Free,SPECTRUM,Midland Beach and Franklin D. Roosevelt Boardwalk,Along Boardwalk and Beach,40.5786309996,-74.0768009998,"962,915.789704","150,096.666392",Outdoor,3 free 10 min sessions,Staten Island,GuestWiFi,0,09/09/9999,5,Staten Island,SI36,Old Town-Dongan Hills-South Beach,50,10305,595,11201,11201,0,5035250200,206,"(40.5786309996, -74.0768009998)"
11482,1,Free,LinkNYC - Citybridge,mn-06-123287,223 EAST 14 STREET,40.7329605004,-73.9861729396,"988,082.083203","206,314.15796",Outdoor Kiosk,"Tablet Internet -phone , Free 1 GB Wi-FI Service",New York,LinkNYC Free Wi-Fi,LINK-013973,10/19/2016,1,Manhattan,MN21,Gramercy,2,10003,106,48,48,1019504,1008960010,4377,"(40.7329605004, -73.9861729396)"
10712,1,Free,LinkNYC - Citybridge,mn-03-123816,91 3 AVENUE,40.7320389999,-73.9879380003,"987,592.953932","205,978.354169",Outdoor Kiosk,"Tablet Internet -phone , Free 1 GB Wi-FI Service",New York,LinkNYC Free Wi-Fi,LINK-008227,04/07/2017,1,Manhattan,MN22,East Village,2,10003,103,40,40,1006851,1004680000,3818,"(40.7320389999, -73.9879380003)"
11188,4,Free,LinkNYC - Citybridge,qu-01-125148,30-01 STEINWAY STREET,40.7636860602,-73.9150512395,"1,007,782.15765","217,519.574525",Outdoor Kiosk,"Tablet Internet -phone , Free 1 GB Wi-FI Service",Queens,LinkNYC Free Wi-Fi,LINK-013594,06/29/2017,4,Queens,QN70,Astoria,22,11103,401,149,149,4011253,4006800050,4313,"(40.7636860602, -73.9150512395)"
12834,1,Free,LinkNYC - Citybridge,mn-08-120985,1180 3 AVENUE,40.7678548897,-73.9622546401,"994,705.41182","219,029.25917",Outdoor Kiosk,"Tablet Internet -phone , Free 1 GB Wi-FI Service",New York,LinkNYC Free Wi-Fi,LINK-000837,03/29/2016,1,Manhattan,MN40,Upper East Side-Carnegie Hill,4,10065,108,120,120,1042479,1014030030,3338,"(40.7678548897, -73.9622546401)"
10442,4,Limited Free,SPECTRUM,Cunningham Park,Parking lot and Tennis Courts,40.729869,-73.7738410001,"1,046,931.38939","205,268.440891",Outdoor,3 free 10 min sessions,Queens,GuestWiFi,0,09/09/9999,4,Queens,QN99,park-cemetery-etc-Queens,23,11423,408,1283,1283,0,4072900001,818,"(40.729869, -73.7738410001)"
11469,1,Free,LinkNYC - Citybridge,mn-04-122456,653 10 AVENUE,40.7623284104,-73.9936423401,"986,011.209064","217,013.591613",Outdoor Kiosk,"Tablet Internet -phone , Free 1 GB Wi-FI Service",New York,LinkNYC Free Wi-Fi,LINK-013881,03/19/2018,1,Manhattan,MN15,Clinton,3,10036,104,129,129,1026966,1010750030,4364,"(40.7623284104, -73.9936423401)"
9970,2,Free,NYPL,Van Nest,2147 BARNES AVENUE,40.8548777848,-73.8641435801,"1,021,832.85133","250,761.695049",Library,,Bronx,NYPL,,09/09/9999,2,Bronx,BX49,Pelham Parkway,13,10462,211,228,228,2049427,2043210070,387,"(40.8548777848, -73.8641435801)"
10027,3,Free,BPL,Ulmer Park - Brooklyn Public Library,2602 BATH AVENUE,40.5926531297,-73.9886820957,"987,393.290946","155,196.131259",Library,,Brooklyn,BPLUNWIRED,,09/09/9999,3,Brooklyn,BK29,Bensonhurst East,47,11214,313,304,304,3186777,3068970035,445,"(40.5926531297, -73.9886820957)"
12196,1,Free,LinkNYC - Citybridge,mn-05-135639,462 PARK AVENUE SOUTH,40.74533995,-73.9827682499,"989,024.784402","210,824.550514",Outdoor Kiosk,"Tablet Internet -phone , Free 1 GB Wi-FI Service",New York,LinkNYC Free Wi-Fi,LINK-012735,10/12/2018,1,Manhattan,MN17,Midtown-Midtown South,2,10016,105,74,74,1080789,1008610040,4211,"(40.74533995, -73.9827682499)"
12372,3,Free,Transit Wireless,Jefferson St (L),Jefferson St (L),40.7066070001,-73.9229129996,"1,005,622.62621","196,721.870714",Subway Station,SN 126,Brooklyn,TransitWirelessWiFi,,09/09/9999,3,Brooklyn,BK77,Bushwick North,34,11237,304,447,447,0,0,1701,"(40.7066070001, -73.9229129996)"
10625,1,Free,LinkNYC - Citybridge,mn-11-120222,1945 3 AVENUE,40.7922967001,-73.94398813,"999,759.514901","227,936.943782",Outdoor Kiosk,"Tablet Internet -phone , Free 1 GB Wi-FI Service",New York,LinkNYC Free Wi-Fi,LINK-000902,06/15/2016,1,Manhattan,MN33,East Harlem South,8,10029,111,170,170,1080688,1016560000,3383,"(40.7922967001, -73.94398813)"
10525,3,Limited Free,SPECTRUM,McCarren Park,Track & Field,40.7200789997,-73.9495109998,"998,245.414583","201,624.758546",Outdoor,3 free 10 min sessions,Brooklyn,GuestWiFi,0,09/09/9999,3,Brooklyn,BK73,North Side-South Side,33,11222,301,515,515,0,3026960001,96,"(40.7200789997, -73.9495109998)"
11523,3,Free,Downtown Brooklyn,,573 Fulton St. (Pole),40.6893339998,-73.9819749997,"989,248.786578","190,419.914814",Outdoor,,Brooklyn,Downtown Brooklyn WiFi,,09/09/9999,3,Brooklyn,BK68,Fort Greene,33,11201,302,33,33,3000357,3001490022,1047,"(40.6893339998, -73.9819749997)"
12722,1,Free,LinkNYC - Citybridge,mn-05-134122,488 MADISON AVENUE,40.7586493104,-73.9751429701,"991,136.314299","215,674.088059",Outdoor Kiosk,"Tablet Internet -phone , Free 1 GB Wi-FI Service",New York,LinkNYC Free Wi-Fi,LINK-000749,05/05/2017,1,Manhattan,MN17,Midtown-Midtown South,4,10022,105,102,102,1035470,1012870010,3299,"(40.7586493104, -73.9751429701)"
10918,1,Free,Harlem,,pole 54: MavSEC128,40.8075940004,-73.939065,"1,001,118.83731","233,511.193788",Outdoor,,New York,Harlem Wi-Fi,,09/09/9999,1,Manhattan,MN03,Central Harlem North-Polo Grounds,9,10035,111,206,206,0,0,751,"(40.8075940004, -73.939065)"
11808,3,Free,LinkNYC - Citybridge,bk-02-126904,128 MONTAGUE STREET,40.6947255403,-73.9942270995,"985,850.841275","192,383.749797",Outdoor Kiosk,"Tablet Internet -phone , Free 1 GB Wi-FI Service",Brooklyn,LinkNYC Free Wi-Fi,LINK-014440,09/09/9999,3,Brooklyn,BK09,Brooklyn Heights-Cobble Hill,33,11201,302,5,5,3002077,3002490030,4428,"(40.6947255403, -73.9942270995)"
11165,1,Free,LinkNYC - Citybridge,mn-10-119897,2710 FREDERICK DOUGLASS BLVD,40.8222148602,-73.9422346805,"1,000,237.85154","238,837.501377",Outdoor Kiosk,"Tablet Internet -phone , Free 1 GB Wi-FI Service",New York,LinkNYC Free Wi-Fi,LINK-013361,10/19/2016,1,Manhattan,MN03,Central Harlem North-Polo Grounds,9,10030,110,232,232,1060439,1020300000,4290,"(40.8222148602, -73.9422346805)"
12744,1,Free,LinkNYC - Citybridge,mn-03-108589,169 BOWERY,40.7199070697,-73.9940664903,"985,894.757197","201,558.141553",Outdoor Kiosk,"Tablet Internet -phone , Free 1 GB Wi-FI Service",New York,LinkNYC Free Wi-Fi,LINK-003249,08/19/2016,1,Manhattan,MN27,Chinatown,1,10002,103,18,18,1005660,1004240010,3671,"(40.7199070697, -73.9940664903)"
12675,1,Free,LinkNYC - Citybridge,mn-04-122620,891 8 AVENUE,40.7643380004,-73.9847670002,"988,469.742533","217,746.054387",Outdoor Kiosk,"Tablet Internet -phone , Free 1 GB Wi-FI Service",New York,LinkNYC Free Wi-Fi,LINK-000549,04/27/2016,1,Manhattan,MN15,Clinton,3,10019,104,133,133,1025400,1010447500,3252,"(40.7643380004, -73.9847670002)"
10857,2,Limited Free,ALTICEUSA,Joyce Kilmer Park,right center,40.8278309999,-73.9226770005,"1,005,649.07202","240,887.838812",Outdoor,3 free 10 min sessions,Bronx,GuestWiFi,,09/09/9999,2,Bronx,BX63,West Concourse,8,10451,204,195,195,0,2024690001,1323,"(40.8278309999, -73.9226770005)"
11600,5,Limited Free,SPECTRUM,Snug Harbor Cultural Center,Building G - SE towards social affair area,40.6437820001,-74.1022450006,"955,875.521304","173,840.079863",Outdoor,3 free 10 min sessions,Staten Island,GuestWiFi,0,09/09/9999,5,Staten Island,SI22,West New Brighton-New Brighton-St. George,49,10310,501,97,97,0,5000760200,1154,"(40.6437820001, -74.1022450006)"
11614,1,Limited Free,SPECTRUM,Thomas Jefferson Park,Computer Resource Room,40.7936690002,-73.9368160005,"1,001,745.09459","228,438.271192",Indoor,3 free 10 min sessions,New York,GuestWiFi,0,09/09/9999,1,Manhattan,MN34,East Harlem North,8,10029,111,178,178,1085632,1017050001,1168,"(40.7936690002, -73.9368160005)"
10680,1,Free,LinkNYC - Citybridge,mn-07-133393,2245 BROADWAY,40.7847119996,-73.9795639995,"989,909.310848","225,169.278714",Outdoor Kiosk,"Tablet Internet -phone , Free 1 GB Wi-FI Service",New York,LinkNYC Free Wi-Fi,LINK-000975,11/21/2016,1,Manhattan,MN12,Upper West Side,6,10024,107,167,167,1081047,1012280010,3438,"(40.7847119996, -73.9795639995)"
11427,1,Free,LinkNYC - Citybridge,mn-08-121708,351 EAST 60 STREET,40.7603599798,-73.9616631402,"994,870.451516","216,298.687859",Outdoor Kiosk,"Tablet Internet -phone , Free 1 GB Wi-FI Service",New York,LinkNYC Free Wi-Fi,LINK-010787,03/14/2018,1,Manhattan,MN31,Lenox Hill-Roosevelt Island,5,10065,108,110,110,1044204,1014350020,3923,"(40.7603599798, -73.9616631402)"
12871,1,Free,LinkNYC - Citybridge,mn-11-120218,175 E 96 ST,40.7858176901,-73.9490312697,"998,364.458636","225,575.565631",Outdoor Kiosk,"Tablet Internet -phone , Free 1 GB Wi-FI Service",New York,LinkNYC Free Wi-Fi,LINK-000892,03/23/2016,1,Manhattan,MN33,East Harlem South,5,10029,111,158,158,1082901,1016240030,3375,"(40.7858176901, -73.9490312697)"
12803,1,Free,LinkNYC - Citybridge,mn-01-136177,55 WATER STREET,40.7039097998,-74.0090824103,"981,731.76946","195,729.926175",Outdoor Kiosk,"Tablet Internet -phone , Free 1 GB Wi-FI Service",New York,LinkNYC Free Wi-Fi,LINK-000771,02/23/2018,1,Manhattan,MN25,Battery Park City-Lower Manhattan,1,10004,101,9,9,1083346,1000327500,3307,"(40.7039097998, -74.0090824103)"
11328,4,Limited Free,SPECTRUM,Alley Pond Park,Tennis Courts and Ball Field,40.739154,-73.7377180002,"1,056,932.94944","208,679.155526",Outdoor,3 free 10 min sessions,Queens,GuestWiFi,0,09/09/9999,4,Queens,QN43,Bellerose,23,11426,413,1567,1567,0,4078600020,17,"(40.739154, -73.7377180002)"
11732,4,Free,LinkNYC - Citybridge,qu-01-133970,30-01 30 AVENUE,40.7673067797,-73.92211147,"1,005,825.18912","218,836.903911",Outdoor Kiosk,"Tablet Internet -phone , Free 1 GB Wi-FI Service",Queens,LinkNYC Free Wi-Fi,LINK-010981,01/10/2018,4,Queens,QN71,Old Astoria,22,11102,401,71,71,4007687,4005950010,3968,"(40.7673067797, -73.92211147)"
11210,1,Free,LinkNYC - Citybridge,mn-05-121567,101 EAST 31 STREET,40.7451423403,-73.9825063298,"989,097.374808","210,752.569358",Outdoor Kiosk,"Tablet Internet -phone , Free 1 GB Wi-FI Service",New York,LinkNYC Free Wi-Fi,LINK-013736,08/03/2017,1,Manhattan,MN20,Murray Hill-Kips Bay,2,10016,105,72,72,1018457,1008870000,4335,"(40.7451423403, -73.9825063298)"
12052,1,Free,LinkNYC - Citybridge,mn-02-123120,475 6 AVENUE,40.73598356,-73.9979901195,"984,807.000515","207,415.257463",Outdoor Kiosk,"Tablet Internet -phone , Free 1 GB Wi-FI Service",New York,LinkNYC Free Wi-Fi,LINK-012372,06/12/2018,1,Manhattan,MN23,West Village,3,10011,102,71,71,1010577,1006070040,4139,"(40.73598356, -73.9979901195)"
10290,3,Free,LinkNYC - Citybridge,bk-06-145891,50 5 AVENUE,40.681596,-73.9770380003,"990,618.679836","187,601.056934",Outdoor Kiosk,"Tablet Internet -phone , Free 1 GB Wi-FI Service",Brooklyn,LinkNYC Free Wi-Fi,LINK-021504,08/15/2017,3,Brooklyn,BK37,Park Slope-Gowanus,39,11217,306,129,129,3018442,3009300050,4695,"(40.681596, -73.9770380003)"
11673,3,Limited Free,ALTICEUSA,Brownsville Recreation Center,MULTI-PURPOSE  R,40.6559,-73.9028500002,"1,011,205.64588","178,253.38895",Indoor,3 free 10 min sessions,Brooklyn,GuestWiFi,,09/09/9999,3,Brooklyn,BK81,Brownsville,42,11212,316,922,922,0,3038680011,1230,"(40.6559, -73.9028500002)"
